{"type":"FeatureCollection","sources":{"land":{"url":"https://raw.githubusercontent.com/nvkelso/natural-earth-vector/master/geojson/ne_10m_land.geojson","sha256":"1ac90796408bc6ad6911d69448485d3c4dbf2190370080368a09976e1c9f7416"},"lakes":{"url":"https://raw.githubusercontent.com/nvkelso/natural-earth-vector/master/geojson/ne_10m_lakes.geojson","sha256":"2d036f53dedec578001c5c30c2959ee7d4eebc1306900fa4367c49929ec8f2d9"}},"attribution":"Natural Earth, public domain; 1:10 million land and lakes. Named forecast-zone limits are approximate.","features":[{"type":"Feature","properties":{"area":"soome lahe lääneosa","water":"sea"},"geometry":{"type":"Polygon","coordinates":[[[22.92,59.36],[23.15,59.56],[23.55,59.69],[24.05,59.72],[24.55,59.73],[25.05,59.72],[25.48,59.66],[25.42,59.53],[25.340758878336416,59.50094492205669],[25.194102,59.52265],[25.145518,59.53913],[25.122081,59.539496],[25.107921,59.528998],[25.116466,59.503119],[25.09783,59.49787],[25.077159,59.501044],[25.035818,59.515204],[25.012218,59.518378],[24.934418,59.508043],[24.90919,59.511542],[24.841645,59.554429],[24.803477,59.570502],[24.772634,59.559963],[24.776703,59.552151],[24.778982,59.545478],[24.779959,59.538398],[24.780121,59.528957],[24.783539,59.519843],[24.791352,59.514716],[24.800304,59.510565],[24.806814,59.504706],[24.815766,59.489325],[24.813243,59.484036],[24.79005,59.45893],[24.78419,59.454779],[24.772634,59.4501],[24.744395,59.447211],[24.728282,59.458564],[24.715587,59.475898],[24.69752,59.491034],[24.68629,59.495063],[24.674978,59.496039],[24.66627,59.492092],[24.662771,59.481147],[24.658539,59.472073],[24.648123,59.469224],[24.621837,59.470608],[24.621837,59.463121],[24.640391,59.459052],[24.656586,59.449897],[24.660492,59.440619],[24.642589,59.436428],[24.624848,59.43891],[24.567149,59.460028],[24.548188,59.462958],[24.5324,59.456773],[24.516775,59.448228],[24.498302,59.443834],[24.478282,59.448391],[24.442149,59.469875],[24.422537,59.477444],[24.399669,59.478827],[24.333832,59.470608],[24.3296,59.463813],[24.317719,59.430976],[24.306163,59.419094],[24.271251,59.412095],[24.182872,59.408759],[24.163097,59.402289],[24.187266,59.390692],[24.21339,59.37226],[24.221934,59.35517],[24.193858,59.347724],[24.164887,59.354071],[24.108653,59.384833],[24.080577,59.395453],[24.062999,59.397366],[24.048188,59.395087],[24.034841,59.388658],[24.022227,59.378119],[24.019379,59.367255],[24.028168,59.357652],[24.092052,59.312567],[24.100108,59.294501],[24.080577,59.271308],[24.038585,59.29328],[23.987641,59.29092],[23.935557,59.280585],[23.888845,59.278754],[23.845388,59.284654],[23.756847,59.283637],[23.734874,59.277737],[23.723643,59.265082],[23.736013,59.259589],[23.742931,59.250149],[23.742198,59.239407],[23.730479,59.230414],[23.718516,59.231431],[23.715505,59.231676],[23.662283,59.258287],[23.641856,59.257392],[23.627696,59.250067],[23.615489,59.241767],[23.592784,59.235663],[23.578461,59.226304],[23.569672,59.224189],[23.557791,59.225246],[23.536794,59.229682],[23.525645,59.230414],[23.470876,59.212144],[23.476818640177097,59.197382947889515],[22.86,59.16],[22.92,59.36]],[[24.51588,59.59809],[24.500499,59.596259],[24.487315,59.578518],[24.489106,59.559638],[24.516287,59.544257],[24.542817,59.547797],[24.550059,59.557766],[24.530935,59.58397],[24.51588,59.59809]]]}},{"type":"Feature","properties":{"area":"soome lahe idaosa","water":"sea"},"geometry":{"type":"MultiPolygon","coordinates":[[[[25.47,59.55],[25.50993929134281,59.562612407792464],[25.525727,59.552476],[25.536143,59.549302],[25.543305,59.542222],[25.543712,59.535142],[25.533214,59.53205],[25.466591993126737,59.532107963915365],[25.47,59.55]]],[[[25.692023888524847,59.62011280690258],[25.695567,59.615912],[25.710785,59.60456],[25.718516,59.587592],[25.705903,59.569281],[25.676768,59.566067],[25.644542,59.571845],[25.622325,59.580471],[25.607123679038292,59.593302214433145],[25.692023888524847,59.62011280690258]]],[[[25.85,59.67],[26.4,59.73],[27.05,59.76],[27.7,59.76],[28.003734086803078,59.73975106087979],[27.995372,59.715522],[27.993419,59.703315],[28.000173,59.681383],[28.01588,59.659654],[28.051768,59.624823],[28.072602,59.57803],[28.055349,59.527899],[28.019054,59.481757],[27.983165,59.446967],[27.95816684372673,59.43114622368095],[27.95,59.43],[27.79016308488869,59.41801223136665],[27.717052,59.427151],[27.563162,59.432074],[27.409028,59.45189],[27.275076,59.446967],[27.116222,59.442043],[26.937673,59.4501],[26.917491,59.454169],[26.875743,59.467719],[26.826915,59.476955],[26.780854,59.50255],[26.739024,59.525824],[26.702322,59.541409],[26.66505,59.551947],[26.626313,59.558051],[26.584727,59.559963],[26.570323,59.556789],[26.536469,59.54267],[26.519867,59.539496],[26.497813,59.539984],[26.457693,59.545885],[26.401703,59.563056],[26.340099,59.570502],[26.299327,59.584215],[26.28004,59.587307],[26.090994,59.585639],[26.081716,59.587307],[26.080333,59.594672],[26.07838,59.600287],[26.074474,59.604315],[26.036388,59.623236],[26.001801,59.632636],[25.988536,59.634345],[25.976899,59.631252],[25.964366,59.621405],[25.962738,59.612535],[25.967052,59.603827],[25.965017,59.597317],[25.944509,59.594672],[25.926931,59.605292],[25.90447,59.62401],[25.883067,59.631334],[25.868826,59.607733],[25.876231,59.600898],[25.861339,59.586127],[25.844493,59.577338],[25.836925,59.576483],[25.826182,59.575263],[25.807384,59.580471],[25.793712,59.591213],[25.785411,59.615465],[25.773123,59.628241],[25.780528,59.635688],[25.76617763144509,59.64352977835108],[25.85,59.67]]],[[[28.3,59.72],[28.410454885963265,59.69383963227186],[28.404959,59.682847],[28.375255,59.666327],[28.335785,59.668158],[28.223888,59.691107],[28.209239,59.711086],[28.20334808562159,59.726443460958556],[28.3,59.72]]]]}},{"type":"Feature","properties":{"area":"läänemere põhjaosa","water":"sea"},"geometry":{"type":"MultiPolygon","coordinates":[[[[20.2,59.75],[22.95,59.75],[23.15,59.2],[22.934047529481482,58.98404752948149],[22.837169,59.008612],[22.736664,59.005072],[22.72047,59.011623],[22.701345,59.02497],[22.69158,59.041164],[22.714122,59.069566],[22.696544,59.079169],[22.666677,59.084906],[22.641124,59.086982],[22.640473,59.087063],[22.597667,59.089504],[22.587169,59.086982],[22.578298,59.078437],[22.576427,59.070136],[22.576427,59.061713],[22.572927,59.052802],[22.559255,59.038398],[22.544444,59.030097],[22.526866,59.026353],[22.504242,59.02558],[22.487559,59.016425],[22.488455,58.981147],[22.476736,58.980536],[22.4546,58.987209],[22.442068,58.984687],[22.443533,58.977729],[22.463064,58.970893],[22.168224,58.950385],[22.094249,58.956041],[22.055512,58.952704],[22.044688,58.936184],[22.062511,58.925849],[22.194998,58.888007],[22.226899,58.886461],[22.291759,58.895209],[22.324962,58.896633],[22.354747,58.892076],[22.382091,58.88227],[22.429942,58.852444],[22.439789,58.841376],[22.442638,58.827216],[22.442638,58.803046],[22.449474,58.786811],[22.46518,58.766588],[22.483409,58.748196],[22.497244,58.737535],[22.480968,58.724799],[22.472179,58.719916],[22.463064,58.716457],[22.50172,58.69477],[22.555675,58.686998],[22.611176,58.690497],[22.654959,58.702786],[22.681,58.724066],[22.71518,58.78205],[22.736664,58.806464],[22.753184,58.815131],[22.777599,58.824368],[22.78462542934017,58.82608400119582],[22.635250687057493,58.59372329097832],[22.630138,58.598212],[22.62379,58.600328],[22.612641,58.605699],[22.594086,58.629136],[22.583181,58.634508],[22.550304,58.629584],[22.463064,58.592922],[22.321951,58.584784],[22.288341,58.569322],[22.283946,58.549547],[22.282888,58.52204],[22.273204,58.502021],[22.243337,58.504828],[22.228852,58.510565],[22.224864,58.516425],[22.223481,58.528388],[22.222179,58.533026],[22.219005,58.539008],[22.215587,58.544176],[22.212901,58.546373],[22.194591,58.545844],[22.187755,58.542873],[22.183279,58.535468],[22.171886,58.521552],[22.158946,58.513617],[22.126801,58.504625],[22.113617,58.497992],[22.103689,58.487209],[22.098806,58.475775],[22.09311,58.44953],[22.098643,58.43476],[22.098481,58.426093],[22.089366,58.422187],[22.083344,58.422512],[22.07781,58.423774],[22.073578,58.426907],[22.072032,58.432807],[22.069835,58.446479],[22.06422,58.456692],[22.020763,58.499254],[21.995616,58.512519],[21.966645,58.517564],[21.928477,58.518378],[21.918956,58.509955],[21.918468,58.504706],[21.91627,58.501166],[21.901378,58.497992],[21.88502,58.498196],[21.832367,58.510972],[21.859386,58.491889],[21.887706,58.477484],[21.901134,58.468411],[21.92449,58.446967],[21.945974,58.432278],[21.990082,58.386949],[22.002208,58.365424],[22.011241,58.353949],[21.990489,58.357856],[21.968028,58.35456],[21.954926,58.344062],[21.96339,58.326606],[21.944591,58.318752],[21.928396,58.326809],[21.912364,58.339748],[21.894542,58.346503],[21.873302,58.34162],[21.879568,58.329535],[21.896658,58.31391],[21.908214,58.298733],[21.855642,58.306871],[21.843272,58.302151],[21.843761,58.293606],[21.851329,58.281887],[21.867849,58.264594],[21.896495,58.250718],[21.928884,58.245103],[21.993826,58.244696],[22.016856,58.233873],[22.052989,58.186591],[22.072276,58.175849],[22.141856,58.169501],[22.180349,58.160834],[22.202973,58.147895],[22.16505,58.116889],[22.164145684351816,58.11542245290266],[20.2,57.75],[20.2,59.75]]],[[[22.35,58.15],[22.269456551782863,58.135015172424716],[22.269867,58.13703],[22.271739,58.174262],[22.27475,58.179267],[22.281993,58.182563],[22.295095,58.192857],[22.323416,58.20661],[22.35377,58.216783],[22.361501,58.217719],[22.380544,58.223456],[22.38795,58.226752],[22.398448,58.227729],[22.39970890114858,58.227324957342226],[22.35,58.15]]]]}},{"type":"Feature","properties":{"area":"väinameri","water":"sea"},"geometry":{"type":"MultiPolygon","coordinates":[[[[22.203901530420342,58.88757551327451],[22.226899,58.886461],[22.291759,58.895209],[22.324962,58.896633],[22.354747,58.892076],[22.382091,58.88227],[22.429942,58.852444],[22.439789,58.841376],[22.442638,58.827216],[22.442638,58.803046],[22.449474,58.786811],[22.46518,58.766588],[22.483409,58.748196],[22.497244,58.737535],[22.480968,58.724799],[22.472179,58.719916],[22.463064,58.716457],[22.50172,58.69477],[22.555675,58.686998],[22.611176,58.690497],[22.654959,58.702786],[22.681,58.724066],[22.71518,58.78205],[22.736664,58.806464],[22.753184,58.815131],[22.777599,58.824368],[22.802257,58.83039],[22.819347,58.829657],[22.826915,58.819159],[22.811209,58.810858],[22.789317,58.802639],[22.778331,58.792182],[22.79005,58.780992],[22.816661,58.775946],[22.845388,58.776516],[22.863617,58.782213],[22.874278,58.787909],[22.882091,58.788031],[22.886729,58.790473],[22.888194,58.803046],[22.886974,58.811835],[22.883067,58.817288],[22.876638,58.819892],[22.867198,58.820054],[22.879568,58.832709],[22.895518,58.835517],[22.912608,58.835598],[22.92921,58.839993],[22.942231,58.834215],[22.947032,58.837551],[22.949555,58.84394],[22.956798,58.847398],[22.967296,58.846503],[22.977794,58.844184],[23.019054,58.829088],[23.033539,58.830308],[23.040538,58.840766],[23.039073,58.861029],[23.035492,58.862006],[23.028494,58.862128],[23.021739,58.864081],[23.018565,58.870673],[23.019054,58.882025],[23.018077,58.887193],[23.015147,58.891791],[23.008067,58.897406],[22.993988,58.905829],[22.987559,58.911933],[22.979503,58.917629],[22.958507,58.926703],[22.949555,58.936184],[22.947602,58.945136],[22.952647,58.960598],[22.949555,58.970893],[22.934093,58.984036],[22.837169,59.008612],[22.736664,59.005072],[22.72047,59.011623],[22.701345,59.02497],[22.69158,59.041164],[22.714122,59.069566],[22.696544,59.079169],[22.666677,59.084906],[22.64434185843653,59.086720571826625],[22.85,59.15],[23.47518938730594,59.08053451252156],[23.434906,59.056098],[23.42921,59.043606],[23.43629,59.02558],[23.429454,59.025865],[23.415212,59.02497],[23.408376,59.02558],[23.434825,59.003811],[23.461274,58.992377],[23.525645,58.983954],[23.531993,58.980536],[23.53712,58.974351],[23.543305,58.969875],[23.552989,58.970893],[23.558604,58.982001],[23.558442,58.987942],[23.559825,58.9914],[23.580333,59.005072],[23.587576,59.007473],[23.605968,59.00849],[23.614431,59.011298],[23.601899,59.024482],[23.572276,59.03974],[23.559825,59.052802],[23.583507,59.044745],[23.605479,59.03266],[23.621593,59.015326],[23.628103,58.9914],[23.627696,58.979153],[23.624848,58.972602],[23.61671,58.967678],[23.584483,58.953559],[23.566905,58.950141],[23.549164,58.950832],[23.531912,58.956692],[23.510102,58.941596],[23.443696,58.944037],[23.422048,58.928697],[23.422374,58.908677],[23.455089,58.883002],[23.463634,58.864163],[23.526134,58.81977],[23.518809,58.812649],[23.485688,58.809638],[23.466563,58.800727],[23.429454,58.764838],[23.485525,58.77733],[23.504893,58.77912],[23.536632,58.774482],[23.542735,58.775377],[23.550141,58.780911],[23.560313,58.785834],[23.580333,58.792182],[23.603363,58.794827],[23.676524,58.792182],[23.719086,58.799058],[23.739513,58.798],[23.75766,58.785346],[23.78419,58.800971],[23.815684,58.799954],[23.847423,58.788235],[23.87436,58.771674],[23.855154,58.773261],[23.816173,58.784613],[23.79949,58.785346],[23.785492,58.777981],[23.779552,58.766425],[23.783376,58.755845],[23.799083,58.751166],[23.804861,58.747992],[23.806651,58.740953],[23.805431,58.733873],[23.802501,58.730699],[23.771821,58.730699],[23.755219,58.733588],[23.716645,58.747016],[23.697032,58.751166],[23.658946,58.748928],[23.621755,58.7414],[23.584483,58.737942],[23.546153,58.747748],[23.533051,58.747463],[23.527354,58.736151],[23.53004,58.722846],[23.546235,58.714301],[23.546641,58.709621],[23.543224,58.704901],[23.535899,58.702786],[23.514822,58.706692],[23.506521,58.70539],[23.497732,58.696601],[23.493175,58.673407],[23.500987,58.647121],[23.512462,58.622382],[23.51824,58.603746],[23.51352,58.593817],[23.504405,58.582953],[23.498057,58.572211],[23.501475,58.562486],[23.516368,58.554633],[23.52475,58.559556],[23.532725,58.570258],[23.546153,58.579901],[23.561209,58.583157],[23.565115,58.577379],[23.566254,58.565904],[23.573497,58.551947],[23.584321,58.544867],[23.603201,58.535956],[23.622406,58.52912],[23.634939,58.528388],[23.663829,58.5362],[23.678966,58.524156],[23.684337,58.499661],[23.68336,58.470038],[23.677501,58.445543],[23.677419,58.435248],[23.68336,58.422187],[23.694184,58.413153],[23.70753,58.407375],[23.718923,58.399563],[23.723643,58.384711],[23.724891061510462,58.37719349928034],[23.55,58.25],[22.513185322476318,58.17024502480587],[22.512543,58.172838],[22.509451,58.174954],[22.49936,58.176663],[22.495942,58.176052],[22.49508578635997,58.16885275279692],[22.270598791630718,58.15158452243313],[22.271739,58.174262],[22.27475,58.179267],[22.281993,58.182563],[22.295095,58.192857],[22.323416,58.20661],[22.35377,58.216783],[22.361501,58.217719],[22.380544,58.223456],[22.38795,58.226752],[22.398448,58.227729],[22.410004,58.224026],[22.421641,58.221625],[22.432384,58.226752],[22.443044,58.234076],[22.459321,58.240912],[22.476817,58.245103],[22.490977,58.244696],[22.491547,58.241523],[22.496837,58.226508],[22.497244,58.223049],[22.504161,58.223538],[22.507172,58.224921],[22.510427,58.2272],[22.517589,58.230414],[22.526134,58.247382],[22.535004,58.254055],[22.549083,58.247789],[22.560313,58.23725],[22.564952,58.235175],[22.570974,58.239447],[22.586192,58.247789],[22.60255,58.252102],[22.621349,58.252753],[22.639822,58.25023],[22.654959,58.244696],[22.6692,58.221503],[22.723155,58.225409],[22.756684,58.242255],[22.710134,58.257758],[22.721202,58.270331],[22.742931,58.27383],[22.788585,58.271389],[22.811209,58.273424],[22.82488,58.279202],[22.854015,58.298733],[22.870942,58.304674],[22.886974,58.307359],[22.90268,58.311835],[22.969493,58.360175],[22.94752,58.372626],[22.954845,58.381049],[22.97755,58.381659],[23.021983,58.363227],[23.042491,58.371487],[23.063813,58.385443],[23.086762,58.394965],[23.084239,58.39997],[23.082286,58.405992],[23.081065,58.412421],[23.080577,58.418524],[23.084239,58.429633],[23.09254,58.431545],[23.101899,58.429592],[23.108653,58.429023],[23.123546,58.435696],[23.130382,58.439521],[23.138031,58.446112],[23.141612,58.45185],[23.146983,58.466376],[23.148936,58.470038],[23.154796,58.475491],[23.156505,58.477525],[23.171886,58.477484],[23.181895,58.474677],[23.188243,58.468207],[23.192231,58.461127],[23.196056,58.456366],[23.215668,58.445868],[23.234874,58.439887],[23.278005,58.43651],[23.271332,58.44599],[23.261729,58.451606],[23.250255,58.454535],[23.237641,58.456366],[23.261404,58.465888],[23.324962,58.442288],[23.333263,58.456366],[23.31837,58.47248],[23.288585,58.488186],[23.255138,58.500067],[23.230642,58.504828],[23.18865,58.510403],[23.148285,58.521552],[23.133556,58.528998],[23.125824,58.535102],[23.111339,58.555732],[23.091075,58.57095],[23.036469,58.584174],[22.989757,58.601752],[22.944021,58.610175],[22.922048,58.617418],[22.899669,58.620266],[22.846365,58.61343],[22.811371,58.622952],[22.790701,58.614814],[22.757986,58.592922],[22.736339,58.58808],[22.719249,58.591213],[22.702647,58.597113],[22.68214,58.600328],[22.675792,58.598293],[22.658214,58.588853],[22.648123,58.586737],[22.640798,58.588853],[22.630138,58.598212],[22.62379,58.600328],[22.612641,58.605699],[22.594086,58.629136],[22.583181,58.634508],[22.550304,58.629584],[22.463064,58.592922],[22.321951,58.584784],[22.288341,58.569322],[22.283946,58.549547],[22.282888,58.52204],[22.273204,58.502021],[22.243337,58.504828],[22.228852,58.510565],[22.227324395319943,58.51280967488093],[22.203901530420342,58.88757551327451]],[[23.313731,58.544664],[23.330903,58.54149],[23.346934,58.535468],[23.362153,58.532457],[23.371593,58.538764],[23.379893,58.547553],[23.400238,58.555406],[23.397146,58.563666],[23.381602,58.579901],[23.374034,58.586371],[23.355642,58.598334],[23.347504,58.607164],[23.345958,58.615668],[23.348155,58.62519],[23.349132,58.635077],[23.343761,58.644721],[23.330251,58.653062],[23.288341,58.66649],[23.197765,58.680609],[23.175792,58.681098],[23.154633,58.67593],[23.134613,58.661811],[23.130382,58.654486],[23.123546,58.633694],[23.120942,58.628323],[23.10613,58.624213],[23.07545,58.629828],[23.062836,58.624579],[23.059337,58.603461],[23.083263,58.590522],[23.134613,58.579901],[23.223806,58.535468],[23.234874,58.534654],[23.264659,58.54385],[23.278575,58.546373],[23.313731,58.544664]],[[23.329438,58.981838],[23.340099,58.983954],[23.350434,58.981879],[23.362315,58.977484],[23.374278,58.975531],[23.384776,58.980536],[23.393728,58.996243],[23.389659,59.007514],[23.364024,59.028957],[23.344249,59.039293],[23.322032,59.039008],[23.278005,59.032375],[23.208018,59.044094],[23.170177,59.045885],[23.148204,59.04442],[23.131358,59.040717],[23.118907,59.033515],[23.114106,59.021796],[23.119395,59.016099],[23.148285,58.974026],[23.163259,58.96894],[23.174164,58.968329],[23.210785,58.972968],[23.215099,58.977362],[23.21754,58.981879],[23.223399,58.983954],[23.244395,58.98135],[23.278575,58.970689],[23.299083,58.970893],[23.329438,58.981838]]],[[[22.576427,59.065823692307696],[22.576427,59.061713],[22.572927,59.052802],[22.559255,59.038398],[22.544444,59.030097],[22.526866,59.026353],[22.504242,59.02558],[22.487559,59.016425],[22.488455,58.981147],[22.476736,58.980536],[22.4546,58.987209],[22.442068,58.984687],[22.443533,58.977729],[22.463064,58.970893],[22.210898074517154,58.953353253697586],[22.576427,59.065823692307696]]],[[[23.51829367352104,59.07574514738655],[23.51824,59.07331],[23.514183291827695,59.076201856463584],[23.51829367352104,59.07574514738655]]]]}},{"type":"Feature","properties":{"area":"liivi lahe põhjaosa","water":"sea"},"geometry":{"type":"Polygon","coordinates":[[[22.26123983054832,58.104461440339286],[22.265391,58.115058],[22.269867,58.13703],[22.271739,58.174262],[22.27475,58.179267],[22.281993,58.182563],[22.295095,58.192857],[22.323416,58.20661],[22.35377,58.216783],[22.361501,58.217719],[22.380544,58.223456],[22.38795,58.226752],[22.398448,58.227729],[22.410004,58.224026],[22.421641,58.221625],[22.432384,58.226752],[22.443044,58.234076],[22.459321,58.240912],[22.476817,58.245103],[22.490977,58.244696],[22.491547,58.241523],[22.496837,58.226508],[22.497244,58.223049],[22.504161,58.223538],[22.507172,58.224921],[22.510427,58.2272],[22.517589,58.230414],[22.526134,58.247382],[22.535004,58.254055],[22.549083,58.247789],[22.560313,58.23725],[22.564952,58.235175],[22.570974,58.239447],[22.586192,58.247789],[22.60255,58.252102],[22.621349,58.252753],[22.639822,58.25023],[22.654959,58.244696],[22.6692,58.221503],[22.723155,58.225409],[22.756684,58.242255],[22.710134,58.257758],[22.721202,58.270331],[22.742931,58.27383],[22.788585,58.271389],[22.811209,58.273424],[22.82488,58.279202],[22.854015,58.298733],[22.870942,58.304674],[22.886974,58.307359],[22.90268,58.311835],[22.969493,58.360175],[22.94752,58.372626],[22.954845,58.381049],[22.97755,58.381659],[23.021983,58.363227],[23.042491,58.371487],[23.063813,58.385443],[23.086762,58.394965],[23.084239,58.39997],[23.082286,58.405992],[23.081065,58.412421],[23.080577,58.418524],[23.08059464878788,58.41857753915471],[23.2,58.45],[23.20794874071251,58.45],[23.215668,58.445868],[23.234874,58.439887],[23.278005,58.43651],[23.271332,58.44599],[23.264475157051276,58.45],[23.30419253830507,58.45],[23.324962,58.442288],[23.329509330018467,58.45],[23.678567077281077,58.45],[23.677501,58.445543],[23.677419,58.435248],[23.68336,58.422187],[23.694184,58.413153],[23.70753,58.407375],[23.718923,58.399563],[23.723643,58.384711],[23.725271,58.374905],[23.729259,58.36286],[23.734874,58.351386],[23.740977,58.343085],[23.748546,58.339057],[23.755626,58.340033],[23.762055,58.344387],[23.768077,58.350246],[23.77711,58.354967],[23.786876,58.353095],[23.796641,58.348822],[23.805675,58.346503],[23.812836,58.348293],[23.81837,58.351752],[23.824474,58.35456],[23.833507,58.353949],[23.83839,58.351386],[23.849457,58.34276],[23.854666,58.339667],[23.873709,58.335191],[23.913829,58.333319],[23.980235,58.318427],[24.007091,58.300523],[24.053233,58.278266],[24.083507,58.250881],[24.094086,58.244696],[24.111664,58.241034],[24.12086,58.245185],[24.138927,58.267971],[24.156016,58.276842],[24.174164,58.276801],[24.210785,58.271389],[24.228852,58.274115],[24.243337,58.280219],[24.25587,58.289537],[24.286876,58.318549],[24.290782,58.327541],[24.292247,58.343085],[24.295746,58.354967],[24.304535,58.368069],[24.315929,58.37995],[24.326996,58.388129],[24.361827,58.397284],[24.403168,58.395331],[24.444184,58.386135],[24.528819,58.350653],[24.551036,58.333726],[24.560395,58.312323],[24.548513,58.289293],[24.521495,58.276109],[24.491466,58.265692],[24.470958,58.250922],[24.467621,58.239814],[24.46811,58.228827],[24.46754,58.217841],[24.454845,58.196438],[24.455089,58.185248],[24.459809,58.174506],[24.46754,58.165269],[24.472911,58.154731],[24.471446,58.142483],[24.464122,58.120551],[24.464122,58.07217],[24.446544,58.054511],[24.398285,58.023261],[24.381114,57.983832],[24.333832,57.921332],[24.330333,57.910102],[24.327891,57.898139],[24.324392,57.886786],[24.316661,57.877265],[24.306163,57.868191],[24.296153,57.857367],[24.288829,57.845282],[24.285981,57.832587],[24.288829,57.808905],[24.299571,57.761908],[24.299571,57.743842],[24.313731,57.725043],[24.357677,57.685492],[24.363048,57.672268],[24.374766,57.613471],[24.362966,57.576606],[24.36079462245598,57.5636360466499],[23.8,57.35],[23.134950916406485,57.35],[23.133556,57.353095],[23.133149,57.362982],[23.130219,57.370795],[23.117524,57.373928],[23.083344,57.378241],[23.031423,57.394477],[22.950369,57.432807],[22.878917,57.481269],[22.656098,57.585761],[22.600759,57.630113],[22.590994,57.644761],[22.587169,57.664984],[22.590831,57.706122],[22.600271,57.743842],[22.604991,57.751044],[22.610118,57.753485],[22.610362,57.754625],[22.600271,57.758043],[22.585785,57.759711],[22.572602,57.756822],[22.560313,57.752753],[22.549083,57.750637],[22.526134,57.749661],[22.483735,57.742499],[22.309827931148902,57.69146258523434],[22.26123983054832,58.104461440339286]],[[22.494558,58.164415],[22.477306,58.142971],[22.496918,58.130683],[22.497651,58.121527],[22.500011,58.121121],[22.52947,58.143988],[22.529633,58.149278],[22.523448,58.151109],[22.522472,58.155463],[22.521658,58.161729],[22.519379,58.165635],[22.515798,58.166164],[22.513682,58.16824],[22.512543,58.172838],[22.509451,58.174954],[22.49936,58.176663],[22.495942,58.176052],[22.494558,58.164415]],[[23.220551,57.817694],[23.218598,57.809516],[23.217784,57.80093],[23.229503,57.791693],[23.250255,57.784369],[23.270193,57.785631],[23.275076,57.798733],[23.270681,57.807807],[23.260509,57.813544],[23.239594,57.822577],[23.224294,57.823717],[23.220551,57.817694]],[[23.970714,58.099595],[24.002452,58.108547],[24.022146,58.129869],[24.013357,58.15351],[23.984223,58.157131],[23.955333,58.151801],[23.937999,58.137274],[23.94337,58.113186],[23.970714,58.099595]]]}},{"type":"Feature","properties":{"area":"peipsi järv","water":"lake"},"geometry":{"type":"Polygon","coordinates":[[[27.55,58.88],[27.75,58.45],[27.74665128069038,58.44363743331172],[27.70953,58.419913],[27.69334,58.393714],[27.660665,58.363984],[27.653306,58.36104],[27.633584,58.360157],[27.629757,58.356919],[27.632112,58.346911],[27.637705,58.342495],[27.644475,58.339551],[27.650068,58.332781],[27.656544,58.320712],[27.658605,58.313353],[27.651245,58.308643],[27.629757,58.305405],[27.609151,58.307466],[27.575888,58.323067],[27.558521,58.326599],[27.543214,58.322478],[27.535855,58.311881],[27.534089,58.297163],[27.534089,58.281562],[27.530851,58.270376],[27.523197,58.258601],[27.506713,58.237113],[27.52879,58.227987],[27.574416,58.234758],[27.592373,58.22681],[27.60032,58.210914],[27.602087,58.192075],[27.596788,58.175885],[27.582659,58.168526],[27.600655228167177,58.16624493351764],[27.563643634719575,58.0959229059672],[27.558226,58.09729],[27.548512,58.107298],[27.534089,58.134968],[27.48228,58.190898],[27.469034,58.210031],[27.466974,58.220923],[27.465207,58.251537],[27.462264,58.257718],[27.451078,58.262134],[27.410456,58.291864],[27.417815,58.303345],[27.415165,58.31247],[27.408395,58.321301],[27.404274,58.332781],[27.404274,58.353975],[27.408101,58.360746],[27.415165,58.36575],[27.418403,58.370754],[27.411044,58.377524],[27.396326,58.383706],[27.326856,58.404017],[27.282996,58.404606],[27.26033,58.408433],[27.237075,58.424034],[27.229716,58.445522],[27.232365,58.494387],[27.229716,58.52088],[27.197336,58.609483],[27.161129,58.663058],[27.098135,58.727523],[27.074586,58.744302],[26.980684,58.778154],[26.955369,58.795816],[26.950658149000418,58.808534924287514],[26.967182441351888,58.879353320079524],[26.979212,58.895311],[27.011003,58.922981],[27.044561,58.944175],[27.081357,58.959777],[27.16769044523162,58.97731515939559],[27.55,58.88]],[[27.491111,58.39342],[27.487873,58.394009],[27.481103,58.394303],[27.474627,58.391948],[27.469623,58.387827],[27.465796,58.381351],[27.49641,58.371931],[27.511423,58.370754],[27.527907,58.373698],[27.519959,58.381645],[27.511128,58.386944],[27.491111,58.39342]]]}}]}
